{
  "type": "FeatureCollection",
  "features": [
    {
      "type": "Feature",
      "properties": {
        "norad_id": 37284,
        "name": "COSMOS 2251 DEB",
        "group": "cosmos-2251-debris",
        "lat": 38.54758574952172,
        "lon": -42.15604117271421,
        "alt_km": 957.3360587240695,
        "timestamp": "2025-12-15T22:44:29.327965+00:00",
        "meta_object_name": "COSMOS 2251 DEB",
        "meta_object_id": "1993-036BHY",
        "meta_epoch": "2025-12-10T18:04:20.469216",
        "meta_mean_motion": 14.12686618,
        "meta_eccentricity": 0.01605026,
        "meta_inclination": 74.0123,
        "meta_ra_of_asc_node": 160.2425,
        "meta_arg_of_pericenter": 312.4867,
        "meta_mean_anomaly": 59.8736,
        "meta_ephemeris_type": 0,
        "meta_classification_type": "U",
        "meta_norad_cat_id": 37284,
        "meta_element_set_no": 999,
        "meta_rev_at_epoch": 59147,
        "meta_bstar": 0.001592138,
        "meta_mean_motion_dot": 3.31e-05,
        "meta_mean_motion_ddot": 0,
        "tle_line1": "1 37284U 93036BHY 25344.75301469  .00003310  00000+0  15921-2 0  9994",
        "tle_line2": "2 37284  74.0123 160.2425 0160502 312.4867  59.8736 14.12686618591475"
      },
      "geometry": {
        "type": "Point",
        "coordinates": [
          -42.15604117271421,
          38.54758574952172
        ]
      }
    },
    {
      "type": "Feature",
      "properties": {
        "norad_id": 37292,
        "name": "COSMOS 2251 DEB",
        "group": "cosmos-2251-debris",
        "lat": 22.900825687153237,
        "lon": -142.680892197578,
        "alt_km": 929.3461551008177,
        "timestamp": "2025-12-15T22:44:29.327976+00:00",
        "meta_object_name": "COSMOS 2251 DEB",
        "meta_object_id": "1993-036BJG",
        "meta_epoch": "2025-12-02T14:04:30.366912",
        "meta_mean_motion": 14.03226454,
        "meta_eccentricity": 0.02102512,
        "meta_inclination": 74.129,
        "meta_ra_of_asc_node": 67.3453,
        "meta_arg_of_pericenter": 73.1105,
        "meta_mean_anomaly": 289.2966,
        "meta_ephemeris_type": 0,
        "meta_classification_type": "U",
        "meta_norad_cat_id": 37292,
        "meta_element_set_no": 999,
        "meta_rev_at_epoch": 59706,
        "meta_bstar": 0.0022453288,
        "meta_mean_motion_dot": 4.236e-05,
        "meta_mean_motion_ddot": 0,
        "tle_line1": "1 37292U 93036BJG 25336.58646258  .00004236  00000+0  22453-2 0  9999",
        "tle_line2": "2 37292  74.1290  67.3453 0210251  73.1105 289.2966 14.03226454597064"
      },
      "geometry": {
        "type": "Point",
        "coordinates": [
          -142.680892197578,
          22.900825687153237
        ]
      }
    },
    {
      "type": "Feature",
      "properties": {
        "norad_id": 37295,
        "name": "COSMOS 2251 DEB",
        "group": "cosmos-2251-debris",
        "lat": 58.56724029534606,
        "lon": -56.57258348096843,
        "alt_km": 643.7303160057645,
        "timestamp": "2025-12-15T22:44:29.327986+00:00",
        "meta_object_name": "COSMOS 2251 DEB",
        "meta_object_id": "1993-036BJK",
        "meta_epoch": "2025-12-15T06:04:18.885504",
        "meta_mean_motion": 14.65255751,
        "meta_eccentricity": 0.00438199,
        "meta_inclination": 74.0062,
        "meta_ra_of_asc_node": 276.7782,
        "meta_arg_of_pericenter": 95.247,
        "meta_mean_anomaly": 265.3701,
        "meta_ephemeris_type": 0,
        "meta_classification_type": "U",
        "meta_norad_cat_id": 37295,
        "meta_element_set_no": 999,
        "meta_rev_at_epoch": 82341,
        "meta_bstar": 0.00044156494,
        "meta_mean_motion_dot": 2.382e-05,
        "meta_mean_motion_ddot": 0,
        "tle_line1": "1 37295U 93036BJK 25349.25299636  .00002382  00000+0  44156-3 0  9999",
        "tle_line2": "2 37295  74.0062 276.7782 0043819  95.2470 265.3701 14.65255751823411"
      },
      "geometry": {
        "type": "Point",
        "coordinates": [
          -56.57258348096843,
          58.56724029534606
        ]
      }
    },
    {
      "type": "Feature",
      "properties": {
        "norad_id": 37305,
        "name": "COSMOS 2251 DEB",
        "group": "cosmos-2251-debris",
        "lat": -46.42837169173893,
        "lon": 122.27693240726836,
        "alt_km": 743.1639495543759,
        "timestamp": "2025-12-15T22:44:29.328013+00:00",
        "meta_object_name": "COSMOS 2251 DEB",
        "meta_object_id": "1993-036BJV",
        "meta_epoch": "2025-12-13T12:50:04.816608",
        "meta_mean_motion": 14.36140847,
        "meta_eccentricity": 0.00500253,
        "meta_inclination": 73.8697,
        "meta_ra_of_asc_node": 289.0409,
        "meta_arg_of_pericenter": 249.3262,
        "meta_mean_anomaly": 110.2523,
        "meta_ephemeris_type": 0,
        "meta_classification_type": "U",
        "meta_norad_cat_id": 37305,
        "meta_element_set_no": 999,
        "meta_rev_at_epoch": 66878,
        "meta_bstar": 0.00092453159,
        "meta_mean_motion_dot": 2.706e-05,
        "meta_mean_motion_ddot": 0,
        "tle_line1": "1 37305U 93036BJV 25347.53477797  .00002706  00000+0  92453-3 0  9999",
        "tle_line2": "2 37305  73.8697 289.0409 0050025 249.3262 110.2523 14.36140847668789"
      },
      "geometry": {
        "type": "Point",
        "coordinates": [
          122.27693240726836,
          -46.42837169173893
        ]
      }
    },
    {
      "type": "Feature",
      "properties": {
        "norad_id": 37312,
        "name": "COSMOS 2251 DEB",
        "group": "cosmos-2251-debris",
        "lat": 25.69676833610806,
        "lon": -153.88730392971914,
        "alt_km": 736.1118136947889,
        "timestamp": "2025-12-15T22:44:29.328026+00:00",
        "meta_object_name": "COSMOS 2251 DEB",
        "meta_object_id": "1993-036BKC",
        "meta_epoch": "2025-12-15T07:40:32.314080",
        "meta_mean_motion": 14.46134941,
        "meta_eccentricity": 0.00183905,
        "meta_inclination": 74.0308,
        "meta_ra_of_asc_node": 199.364,
        "meta_arg_of_pericenter": 302.4306,
        "meta_mean_anomaly": 57.5073,
        "meta_ephemeris_type": 0,
        "meta_classification_type": "U",
        "meta_norad_cat_id": 37312,
        "meta_element_set_no": 999,
        "meta_rev_at_epoch": 86201,
        "meta_bstar": 0.00037323494,
        "meta_mean_motion_dot": 1.309e-05,
        "meta_mean_motion_ddot": 0,
        "tle_line1": "1 37312U 93036BKC 25349.31981845  .00001309  00000+0  37323-3 0  9992",
        "tle_line2": "2 37312  74.0308 199.3640 0018390 302.4306  57.5073 14.46134941862012"
      },
      "geometry": {
        "type": "Point",
        "coordinates": [
          -153.88730392971914,
          25.69676833610806
        ]
      }
    },
    {
      "type": "Feature",
      "properties": {
        "norad_id": 37316,
        "name": "COSMOS 2251 DEB",
        "group": "cosmos-2251-debris",
        "lat": 59.75181591172566,
        "lon": 44.031893133028156,
        "alt_km": 557.8676852013705,
        "timestamp": "2025-12-15T22:44:29.328037+00:00",
        "meta_object_name": "COSMOS 2251 DEB",
        "meta_object_id": "1993-036BKG",
        "meta_epoch": "2025-12-15T01:34:24.899808",
        "meta_mean_motion": 14.94605857,
        "meta_eccentricity": 0.00294208,
        "meta_inclination": 74.021,
        "meta_ra_of_asc_node": 16.3789,
        "meta_arg_of_pericenter": 83.6684,
        "meta_mean_anomaly": 276.7849,
        "meta_ephemeris_type": 0,
        "meta_classification_type": "U",
        "meta_norad_cat_id": 37316,
        "meta_element_set_no": 999,
        "meta_rev_at_epoch": 86178,
        "meta_bstar": 0.0011164056,
        "meta_mean_motion_dot": 0.00012174,
        "meta_mean_motion_ddot": 0,
        "tle_line1": "1 37316U 93036BKG 25349.06556597  .00012174  00000+0  11164-2 0  9996",
        "tle_line2": "2 37316  74.0210  16.3789 0029420  83.6684 276.7849 14.94605857861784"
      },
      "geometry": {
        "type": "Point",
        "coordinates": [
          44.031893133028156,
          59.75181591172566
        ]
      }
    },
    {
      "type": "Feature",
      "properties": {
        "norad_id": 37320,
        "name": "COSMOS 2251 DEB",
        "group": "cosmos-2251-debris",
        "lat": 16.57454468213621,
        "lon": -143.254905426721,
        "alt_km": 627.02457733342,
        "timestamp": "2025-12-15T22:44:29.328047+00:00",
        "meta_object_name": "COSMOS 2251 DEB",
        "meta_object_id": "1993-036BKL",
        "meta_epoch": "2025-12-14T07:41:51.703584",
        "meta_mean_motion": 14.78808328,
        "meta_eccentricity": 0.00469324,
        "meta_inclination": 74.0457,
        "meta_ra_of_asc_node": 215.056,
        "meta_arg_of_pericenter": 301.712,
        "meta_mean_anomaly": 57.9484,
        "meta_ephemeris_type": 0,
        "meta_classification_type": "U",
        "meta_norad_cat_id": 37320,
        "meta_element_set_no": 999,
        "meta_rev_at_epoch": 66170,
        "meta_bstar": 0.00089962437,
        "meta_mean_motion_dot": 6.711e-05,
        "meta_mean_motion_ddot": 0,
        "tle_line1": "1 37320U 93036BKL 25348.32073731  .00006711  00000+0  89962-3 0  9995",
        "tle_line2": "2 37320  74.0457 215.0560 0046932 301.7120  57.9484 14.78808328661707"
      },
      "geometry": {
        "type": "Point",
        "coordinates": [
          -143.254905426721,
          16.57454468213621
        ]
      }
    }
  ]
}